{
  "type": "FeatureCollection",
  "features": [
    {
      "type": "Feature",
      "properties": {
        "norad_id": 36048,
        "name": "COSMOS 2251 DEB",
        "group": "cosmos-2251-debris",
        "lat": 65.14382745578293,
        "lon": -35.42218768926683,
        "alt_km": 760.6991380376339,
        "timestamp": "2025-12-19T16:54:44.660415+00:00",
        "meta_object_name": "COSMOS 2251 DEB",
        "meta_object_id": "1993-036AXK",
        "meta_epoch": "2025-12-19T05:13:15.256416",
        "meta_mean_motion": 14.37862849,
        "meta_eccentricity": 0.00268811,
        "meta_inclination": 74.0569,
        "meta_ra_of_asc_node": 287.3716,
        "meta_arg_of_pericenter": 336.0846,
        "meta_mean_anomaly": 93.7282,
        "meta_ephemeris_type": 0,
        "meta_classification_type": "U",
        "meta_norad_cat_id": 36048,
        "meta_element_set_no": 999,
        "meta_rev_at_epoch": 85595,
        "meta_bstar": 0.00020859609,
        "meta_mean_motion_dot": 6.05e-06,
        "meta_mean_motion_ddot": 0,
        "tle_line1": "1 36048U 93036AXK 25353.21753769  .00000605  00000+0  20860-3 0  9999",
        "tle_line2": "2 36048  74.0569 287.3716 0026881 336.0846  93.7282 14.37862849855958"
      },
      "geometry": {
        "type": "Point",
        "coordinates": [
          -35.42218768926683,
          65.14382745578293
        ]
      }
    },
    {
      "type": "Feature",
      "properties": {
        "norad_id": 36049,
        "name": "COSMOS 2251 DEB",
        "group": "cosmos-2251-debris",
        "lat": 61.3253260233108,
        "lon": 137.41318553214774,
        "alt_km": 684.1587925866215,
        "timestamp": "2025-12-19T16:54:44.660425+00:00",
        "meta_object_name": "COSMOS 2251 DEB",
        "meta_object_id": "1993-036AXL",
        "meta_epoch": "2025-12-19T00:11:29.887584",
        "meta_mean_motion": 14.62222603,
        "meta_eccentricity": 0.00103942,
        "meta_inclination": 74.0312,
        "meta_ra_of_asc_node": 107.1751,
        "meta_arg_of_pericenter": 195.1693,
        "meta_mean_anomaly": 164.9164,
        "meta_ephemeris_type": 0,
        "meta_classification_type": "U",
        "meta_norad_cat_id": 36049,
        "meta_element_set_no": 999,
        "meta_rev_at_epoch": 85456,
        "meta_bstar": 0.00099664593,
        "meta_mean_motion_dot": 4.999e-05,
        "meta_mean_motion_ddot": 0,
        "tle_line1": "1 36049U 93036AXL 25353.00798481  .00004999  00000+0  99665-3 0  9996",
        "tle_line2": "2 36049  74.0312 107.1751 0010394 195.1693 164.9164 14.62222603854561"
      },
      "geometry": {
        "type": "Point",
        "coordinates": [
          137.41318553214774,
          61.3253260233108
        ]
      }
    },
    {
      "type": "Feature",
      "properties": {
        "norad_id": 36050,
        "name": "COSMOS 2251 DEB",
        "group": "cosmos-2251-debris",
        "lat": 30.709970388630953,
        "lon": -170.36466388368635,
        "alt_km": 604.3354622571842,
        "timestamp": "2025-12-19T16:54:44.660436+00:00",
        "meta_object_name": "COSMOS 2251 DEB",
        "meta_object_id": "1993-036AXM",
        "meta_epoch": "2025-12-15T21:35:48.459552",
        "meta_mean_motion": 15.01080492,
        "meta_eccentricity": 0.00887608,
        "meta_inclination": 74.0305,
        "meta_ra_of_asc_node": 187.588,
        "meta_arg_of_pericenter": 266.4769,
        "meta_mean_anomaly": 92.6264,
        "meta_ephemeris_type": 0,
        "meta_classification_type": "U",
        "meta_norad_cat_id": 36050,
        "meta_element_set_no": 999,
        "meta_rev_at_epoch": 67082,
        "meta_bstar": 0.00042445305,
        "meta_mean_motion_dot": 5.866e-05,
        "meta_mean_motion_ddot": 0,
        "tle_line1": "1 36050U 93036AXM 25349.89986643  .00005866  00000+0  42445-3 0  9997",
        "tle_line2": "2 36050  74.0305 187.5880 0088760 266.4769  92.6264 15.01080492670823"
      },
      "geometry": {
        "type": "Point",
        "coordinates": [
          -170.36466388368635,
          30.709970388630953
        ]
      }
    },
    {
      "type": "Feature",
      "properties": {
        "norad_id": 36053,
        "name": "COSMOS 2251 DEB",
        "group": "cosmos-2251-debris",
        "lat": -71.23419258322365,
        "lon": 80.91563759380902,
        "alt_km": 731.3603697700228,
        "timestamp": "2025-12-19T16:54:44.660447+00:00",
        "meta_object_name": "COSMOS 2251 DEB",
        "meta_object_id": "1993-036AXQ",
        "meta_epoch": "2025-12-19T02:27:11.674944",
        "meta_mean_motion": 14.57252603,
        "meta_eccentricity": 0.00325446,
        "meta_inclination": 73.8697,
        "meta_ra_of_asc_node": 140.476,
        "meta_arg_of_pericenter": 87.3695,
        "meta_mean_anomaly": 273.1193,
        "meta_ephemeris_type": 0,
        "meta_classification_type": "U",
        "meta_norad_cat_id": 36053,
        "meta_element_set_no": 999,
        "meta_rev_at_epoch": 87537,
        "meta_bstar": 0.0010759038,
        "meta_mean_motion_dot": 4.872e-05,
        "meta_mean_motion_ddot": 0,
        "tle_line1": "1 36053U 93036AXQ 25353.10221846  .00004872  00000+0  10759-2 0  9994",
        "tle_line2": "2 36053  73.8697 140.4760 0032544  87.3695 273.1193 14.57252603875378"
      },
      "geometry": {
        "type": "Point",
        "coordinates": [
          80.91563759380902,
          -71.23419258322365
        ]
      }
    },
    {
      "type": "Feature",
      "properties": {
        "norad_id": 36058,
        "name": "COSMOS 2251 DEB",
        "group": "cosmos-2251-debris",
        "lat": 72.53688372308719,
        "lon": 85.78569178594465,
        "alt_km": 679.0702943846827,
        "timestamp": "2025-12-19T16:54:44.660457+00:00",
        "meta_object_name": "COSMOS 2251 DEB",
        "meta_object_id": "1993-036AXV",
        "meta_epoch": "2025-12-16T09:31:35.831136",
        "meta_mean_motion": 14.58710964,
        "meta_eccentricity": 0.00443273,
        "meta_inclination": 74.0236,
        "meta_ra_of_asc_node": 26.4887,
        "meta_arg_of_pericenter": 159.9009,
        "meta_mean_anomaly": 200.3914,
        "meta_ephemeris_type": 0,
        "meta_classification_type": "U",
        "meta_norad_cat_id": 36058,
        "meta_element_set_no": 999,
        "meta_rev_at_epoch": 66164,
        "meta_bstar": 0.00034845634,
        "meta_mean_motion_dot": 1.618e-05,
        "meta_mean_motion_ddot": 0,
        "tle_line1": "1 36058U 93036AXV 25350.39694249  .00001618  00000+0  34846-3 0  9997",
        "tle_line2": "2 36058  74.0236  26.4887 0044327 159.9009 200.3914 14.58710964661641"
      },
      "geometry": {
        "type": "Point",
        "coordinates": [
          85.78569178594465,
          72.53688372308719
        ]
      }
    },
    {
      "type": "Feature",
      "properties": {
        "norad_id": 36060,
        "name": "COSMOS 2251 DEB",
        "group": "cosmos-2251-debris",
        "lat": -66.43336091743363,
        "lon": -179.3889543747045,
        "alt_km": 749.1929177278998,
        "timestamp": "2025-12-19T16:54:44.660498+00:00",
        "meta_object_name": "COSMOS 2251 DEB",
        "meta_object_id": "1993-036AXX",
        "meta_epoch": "2025-12-18T07:56:47.942016",
        "meta_mean_motion": 14.4201191,
        "meta_eccentricity": 0.00154616,
        "meta_inclination": 74.0282,
        "meta_ra_of_asc_node": 224.1973,
        "meta_arg_of_pericenter": 320.5439,
        "meta_mean_anomaly": 39.459,
        "meta_ephemeris_type": 0,
        "meta_classification_type": "U",
        "meta_norad_cat_id": 36060,
        "meta_element_set_no": 999,
        "meta_rev_at_epoch": 85090,
        "meta_bstar": 0.00025465376,
        "meta_mean_motion_dot": 8.1e-06,
        "meta_mean_motion_ddot": 0,
        "tle_line1": "1 36060U 93036AXX 25352.33111044  .00000810  00000+0  25465-3 0  9993",
        "tle_line2": "2 36060  74.0282 224.1973 0015461 320.5439  39.4590 14.42011910850906"
      },
      "geometry": {
        "type": "Point",
        "coordinates": [
          -179.3889543747045,
          -66.43336091743363
        ]
      }
    },
    {
      "type": "Feature",
      "properties": {
        "norad_id": 36061,
        "name": "COSMOS 2251 DEB",
        "group": "cosmos-2251-debris",
        "lat": -71.87998574955743,
        "lon": -131.88962402856242,
        "alt_km": 812.3360424169905,
        "timestamp": "2025-12-19T16:54:44.660510+00:00",
        "meta_object_name": "COSMOS 2251 DEB",
        "meta_object_id": "1993-036AXY",
        "meta_epoch": "2025-12-15T17:55:08.095872",
        "meta_mean_motion": 14.33713146,
        "meta_eccentricity": 0.00367991,
        "meta_inclination": 74.0242,
        "meta_ra_of_asc_node": 354.2562,
        "meta_arg_of_pericenter": 81.2237,
        "meta_mean_anomaly": 279.3079,
        "meta_ephemeris_type": 0,
        "meta_classification_type": "U",
        "meta_norad_cat_id": 36061,
        "meta_element_set_no": 999,
        "meta_rev_at_epoch": 65147,
        "meta_bstar": 0.00027590632,
        "meta_mean_motion_dot": 7.46e-06,
        "meta_mean_motion_ddot": 0,
        "tle_line1": "1 36061U 93036AXY 25349.74662148  .00000746  00000+0  27591-3 0  9991",
        "tle_line2": "2 36061  74.0242 354.2562 0036799  81.2237 279.3079 14.33713146651474"
      },
      "geometry": {
        "type": "Point",
        "coordinates": [
          -131.88962402856242,
          -71.87998574955743
        ]
      }
    }
  ]
}